{
  "type": "FeatureCollection",
  "features": [
    {
      "type": "Feature",
      "properties": {
        "norad_id": 38091,
        "name": "BEIDOU-2 G5 (C05)",
        "group": "gnss",
        "lat": 2.9477346145540926,
        "lon": 140.49951233521244,
        "alt_km": 35838.46104651158,
        "timestamp": "2025-12-18T23:35:49.300565+00:00",
        "meta_object_name": "BEIDOU-2 G5 (C05)",
        "meta_object_id": "2012-008A",
        "meta_epoch": "2025-12-18T16:03:39.452832",
        "meta_mean_motion": 1.00268272,
        "meta_eccentricity": 0.00129756,
        "meta_inclination": 3.1235,
        "meta_ra_of_asc_node": 70.6898,
        "meta_arg_of_pericenter": 231.1495,
        "meta_mean_anomaly": 85.3963,
        "meta_ephemeris_type": 0,
        "meta_classification_type": "U",
        "meta_norad_cat_id": 38091,
        "meta_element_set_no": 999,
        "meta_rev_at_epoch": 5055,
        "meta_bstar": 0,
        "meta_mean_motion_dot": 7.9e-07,
        "meta_mean_motion_ddot": 0,
        "tle_line1": "1 38091U 12008A   25352.66920663  .00000079  00000+0  00000+0 0  9991",
        "tle_line2": "2 38091   3.1235  70.6898 0012975 231.1495  85.3963  1.00268272 50551"
      },
      "geometry": {
        "type": "Point",
        "coordinates": [
          140.49951233521244,
          2.9477346145540926
        ]
      }
    },
    {
      "type": "Feature",
      "properties": {
        "norad_id": 38250,
        "name": "BEIDOU-2 M3 (C11)",
        "group": "gnss",
        "lat": 30.637188715190614,
        "lon": 107.29971921534762,
        "alt_km": 21570.40921079501,
        "timestamp": "2025-12-18T23:35:49.300577+00:00",
        "meta_object_name": "BEIDOU-2 M3 (C11)",
        "meta_object_id": "2012-018A",
        "meta_epoch": "2025-12-18T05:36:36.842400",
        "meta_mean_motion": 1.86230021,
        "meta_eccentricity": 0.00242148,
        "meta_inclination": 55.9152,
        "meta_ra_of_asc_node": 310.9725,
        "meta_arg_of_pericenter": 274.7921,
        "meta_mean_anomaly": 84.917,
        "meta_ephemeris_type": 0,
        "meta_classification_type": "U",
        "meta_norad_cat_id": 38250,
        "meta_element_set_no": 999,
        "meta_rev_at_epoch": 9257,
        "meta_bstar": 0,
        "meta_mean_motion_dot": -8.6e-07,
        "meta_mean_motion_ddot": 0,
        "tle_line1": "1 38250U 12018A   25352.23375975 -.00000086  00000+0  00000+0 0  9991",
        "tle_line2": "2 38250  55.9152 310.9725 0024214 274.7921  84.9170  1.86230021 92574"
      },
      "geometry": {
        "type": "Point",
        "coordinates": [
          107.29971921534762,
          30.637188715190614
        ]
      }
    },
    {
      "type": "Feature",
      "properties": {
        "norad_id": 38251,
        "name": "BEIDOU-2 M4 (C12)",
        "group": "gnss",
        "lat": -6.372712534125699,
        "lon": 134.50148648567054,
        "alt_km": 21529.805416842275,
        "timestamp": "2025-12-18T23:35:49.300588+00:00",
        "meta_object_name": "BEIDOU-2 M4 (C12)",
        "meta_object_id": "2012-018B",
        "meta_epoch": "2025-12-18T03:58:46.817760",
        "meta_mean_motion": 1.86229697,
        "meta_eccentricity": 0.00154218,
        "meta_inclination": 55.8167,
        "meta_ra_of_asc_node": 310.2031,
        "meta_arg_of_pericenter": 278.3297,
        "meta_mean_anomaly": 81.4813,
        "meta_ephemeris_type": 0,
        "meta_classification_type": "U",
        "meta_norad_cat_id": 38251,
        "meta_element_set_no": 999,
        "meta_rev_at_epoch": 9257,
        "meta_bstar": 0,
        "meta_mean_motion_dot": -8.6e-07,
        "meta_mean_motion_ddot": 0,
        "tle_line1": "1 38251U 12018B   25352.16581965 -.00000086  00000+0  00000+0 0  9992",
        "tle_line2": "2 38251  55.8167 310.2031 0015421 278.3297  81.4813  1.86229697 92572"
      },
      "geometry": {
        "type": "Point",
        "coordinates": [
          134.50148648567054,
          -6.372712534125699
        ]
      }
    },
    {
      "type": "Feature",
      "properties": {
        "norad_id": 38652,
        "name": "SES-5 (EGNOS/PRN 136)",
        "group": "gnss",
        "lat": 0.058808356236540085,
        "lon": 86.75280085139931,
        "alt_km": 35794.22592964047,
        "timestamp": "2025-12-18T23:35:49.300600+00:00",
        "meta_object_name": "SES-5 (EGNOS/PRN 136)",
        "meta_object_id": "2012-036A",
        "meta_epoch": "2025-12-18T13:19:11.535168",
        "meta_mean_motion": 1.00270056,
        "meta_eccentricity": 0.00018187,
        "meta_inclination": 0.0555,
        "meta_ra_of_asc_node": 307.3887,
        "meta_arg_of_pericenter": 315.9373,
        "meta_mean_anomaly": 28.8626,
        "meta_ephemeris_type": 0,
        "meta_classification_type": "U",
        "meta_norad_cat_id": 38652,
        "meta_element_set_no": 999,
        "meta_rev_at_epoch": 4264,
        "meta_bstar": 0,
        "meta_mean_motion_dot": 5.9e-07,
        "meta_mean_motion_ddot": 0,
        "tle_line1": "1 38652U 12036A   25352.55499462  .00000059  00000+0  00000+0 0  9999",
        "tle_line2": "2 38652   0.0555 307.3887 0001818 315.9373  28.8626  1.00270056 42645"
      },
      "geometry": {
        "type": "Point",
        "coordinates": [
          86.75280085139931,
          0.058808356236540085
        ]
      }
    },
    {
      "type": "Feature",
      "properties": {
        "norad_id": 38775,
        "name": "BEIDOU-2 M6 (C14)",
        "group": "gnss",
        "lat": 18.098606966147884,
        "lon": 81.41234092845836,
        "alt_km": 21501.1227700239,
        "timestamp": "2025-12-18T23:35:49.300611+00:00",
        "meta_object_name": "BEIDOU-2 M6 (C14)",
        "meta_object_id": "2012-050B",
        "meta_epoch": "2025-12-16T19:16:00.374304",
        "meta_mean_motion": 1.86230897,
        "meta_eccentricity": 0.00113573,
        "meta_inclination": 56.3818,
        "meta_ra_of_asc_node": 68.9326,
        "meta_arg_of_pericenter": 343.3915,
        "meta_mean_anomaly": 16.5942,
        "meta_ephemeris_type": 0,
        "meta_classification_type": "U",
        "meta_norad_cat_id": 38775,
        "meta_element_set_no": 999,
        "meta_rev_at_epoch": 8991,
        "meta_bstar": 0,
        "meta_mean_motion_dot": -7.7e-07,
        "meta_mean_motion_ddot": 0,
        "tle_line1": "1 38775U 12050B   25350.80278211 -.00000077  00000+0  00000+0 0  9995",
        "tle_line2": "2 38775  56.3818  68.9326 0011357 343.3915  16.5942  1.86230897 89910"
      },
      "geometry": {
        "type": "Point",
        "coordinates": [
          81.41234092845836,
          18.098606966147884
        ]
      }
    },
    {
      "type": "Feature",
      "properties": {
        "norad_id": 38779,
        "name": "GSAT-10 (GAGAN/PRN 128)",
        "group": "gnss",
        "lat": -0.0695926343301024,
        "lon": 164.82564215070593,
        "alt_km": 35777.994437363544,
        "timestamp": "2025-12-18T23:35:49.300623+00:00",
        "meta_object_name": "GSAT-10 (GAGAN/PRN 128)",
        "meta_object_id": "2012-051B",
        "meta_epoch": "2025-12-18T13:41:24.407232",
        "meta_mean_motion": 1.00272496,
        "meta_eccentricity": 0.00024716,
        "meta_inclination": 0.0771,
        "meta_ra_of_asc_node": 265.4579,
        "meta_arg_of_pericenter": 219.0603,
        "meta_mean_anomaly": 251.2888,
        "meta_ephemeris_type": 0,
        "meta_classification_type": "U",
        "meta_norad_cat_id": 38779,
        "meta_element_set_no": 999,
        "meta_rev_at_epoch": 4828,
        "meta_bstar": 0,
        "meta_mean_motion_dot": -1.4e-06,
        "meta_mean_motion_ddot": 0,
        "tle_line1": "1 38779U 12051B   25352.57042138 -.00000140  00000+0  00000+0 0  9994",
        "tle_line2": "2 38779   0.0771 265.4579 0002471 219.0603 251.2888  1.00272496 48281"
      },
      "geometry": {
        "type": "Point",
        "coordinates": [
          164.82564215070593,
          -0.0695926343301024
        ]
      }
    },
    {
      "type": "Feature",
      "properties": {
        "norad_id": 38833,
        "name": "GPS BIIF-3  (PRN 24)",
        "group": "gnss",
        "lat": 48.64785731583259,
        "lon": -86.14189271152455,
        "alt_km": 19852.643084902807,
        "timestamp": "2025-12-18T23:35:49.300635+00:00",
        "meta_object_name": "GPS BIIF-3  (PRN 24)",
        "meta_object_id": "2012-053A",
        "meta_epoch": "2025-12-18T08:03:02.727072",
        "meta_mean_motion": 2.00565083,
        "meta_eccentricity": 0.01760229,
        "meta_inclination": 53.559,
        "meta_ra_of_asc_node": 151.0095,
        "meta_arg_of_pericenter": 64.0757,
        "meta_mean_anomaly": 297.7154,
        "meta_ephemeris_type": 0,
        "meta_classification_type": "U",
        "meta_norad_cat_id": 38833,
        "meta_element_set_no": 999,
        "meta_rev_at_epoch": 9581,
        "meta_bstar": 0,
        "meta_mean_motion_dot": 6.1e-07,
        "meta_mean_motion_ddot": 0,
        "tle_line1": "1 38833U 12053A   25352.33544823  .00000061  00000+0  00000+0 0  9990",
        "tle_line2": "2 38833  53.5590 151.0095 0176022  64.0757 297.7154  2.00565083 95819"
      },
      "geometry": {
        "type": "Point",
        "coordinates": [
          -86.14189271152455,
          48.64785731583259
        ]
      }
    }
  ]
}